[
  {
    "ownerId": 1,
    "name": "Block 15",
    "address": "300 SW Jefferson Ave.",
    "city": "Corvallis",
    "state": "OR",
    "zip": "97333",
    "phone": "541-758-2077",
    "category": "Restaurant",
    "subcategory": "Brewpub",
    "website": "http://block15.com"
  },
  {
    "ownerId": 3,
    "name": "Gamagora Geekhouse",
    "address": "108 SW 3rd St.",
    "city": "Corvallis",
    "state": "OR",
    "zip": "97333",
    "phone": "541-286-8616",
    "category": "Shopping",
    "subcategory": "Games",
    "website": "https://gamagorageekhouse.com"
  },
  {
    "ownerId": 2,
    "name": "Robnett's Hardware",
    "address": "400 SW 2nd St.",
    "city": "Corvallis",
    "state": "OR",
    "zip": "97333",
    "phone": "541-753-5531",
    "category": "Shopping",
    "subcategory": "Hardware"
  },
  {
    "ownerId": 4,
    "name": "First Alternative Co-op North Store",
    "address": "2855 NW Grant Ave.",
    "city": "Corvallis",
    "state": "OR",
    "zip": "97330",
    "phone": "541-452-3115",
    "category": "Shopping",
    "subcategory": "Groceries"
  },
  {
    "ownerId": 9,
    "name": "WinCo Foods",
    "address": "2335 NW Kings Blvd.",
    "city": "Corvallis",
    "state": "OR",
    "zip": "97330",
    "phone": "541-753-7002",
    "category": "Shopping",
    "subcategory": "Groceries"
  },
  {
    "ownerId": 11,
    "name": "Fred Meyer",
    "address": "777 NW Kings Blvd.",
    "city": "Corvallis",
    "state": "OR",
    "zip": "97330",
    "phone": "541-753-9116",
    "category": "Shopping",
    "subcategory": "Groceries"
  },
  {
    "ownerId": 6,
    "name": "Interzone",
    "address": "1563 NW Monroe Ave.",
    "city": "Corvallis",
    "state": "OR",
    "zip": "97330",
    "phone": "541-754-5965",
    "category": "Restaurant",
    "subcategory": "Coffee Shop"
  },
  {
    "ownerId": 8,
    "name": "Bodhi Bakery",
    "address": "500 SW 2nd St.",
    "city": "Corvallis",
    "state": "OR",
    "zip": "97333",
    "phone": "541-286-4734",
    "category": "Restaurant",
    "subcategory": "Bakery"
  },
  {
    "ownerId": 5,
    "name": "Local Boyz",
    "address": "1425 NW Monroe Ave.",
    "city": "Corvallis",
    "state": "OR",
    "zip": "97330",
    "phone": "541-754-5338",
    "category": "Restaurant",
    "subcategory": "Hawaiian"
  },
  {
    "ownerId": 7,
    "name": "Darkside Cinema",
    "address": "215 SW 4th St.",
    "city": "Corvallis",
    "state": "OR",
    "zip": "97333",
    "phone": "541-752-4161",
    "category": "Entertainment",
    "subcategory": "Movie Theater",
    "website": "http://darksidecinema.com"
  },
  {
    "ownerId": 10,
    "name": "The Book Bin",
    "address": "215 SW 4th St.",
    "city": "Corvallis",
    "state": "OR",
    "zip": "97333",
    "phone": "541-752-0040",
    "category": "Shopping",
    "subcategory": "Book Store"
  },
  {
    "ownerId": 12,
    "name": "Cyclotopia",
    "address": "435 SW 2nd St.",
    "city": "Corvallis",
    "state": "OR",
    "zip": "97333",
    "phone": "541-757-9694",
    "category": "Shopping",
    "subcategory": "Bicycle Shop"
  },
  {
    "ownerId": 14,
    "name": "Corvallis Cyclery",
    "address": "344 SW 2nd St.",
    "city": "Corvallis",
    "state": "OR",
    "zip": "97333",
    "phone": "541-752-5952",
    "category": "Shopping",
    "subcategory": "Bicycle Shop"
  },
  {
    "ownerId": 13,
    "name": "Oregon Coffee & Tea",
    "address": "215 NW Monroe Ave.",
    "city": "Corvallis",
    "state": "OR",
    "zip": "97333",
    "phone": "541-752-2421",
    "category": "Shopping",
    "subcategory": "Tea House",
    "website": "http://www.oregoncoffeeandtea.com"
  },
  {
    "ownerId": 15,
    "name": "Spaeth Lumber",
    "address": "1585 NW 9th St.",
    "city": "Corvallis",
    "state": "OR",
    "zip": "97330",
    "phone": "541-752-1930",
    "category": "Shopping",
    "subcategory": "Hardware"
  },
  {
    "ownerId": 16,
    "name": "New Morning Bakery",
    "address": "219 SW 2nd St.",
    "city": "Corvallis",
    "state": "OR",
    "zip": "97333",
    "phone": "541-754-0181",
    "category": "Restaurant",
    "subcategory": "Bakery"
  },
  {
    "ownerId": 4,
    "name": "First Alternative Co-op South Store",
    "address": "1007 SE 3rd St.",
    "city": "Corvallis",
    "state": "OR",
    "zip": "97333",
    "phone": "541-753-3115",
    "category": "Shopping",
    "subcategory": "Groceries"
  },
  {
    "ownerId": 17,
    "name": "Tian Fu",
    "address": "1425 NW Monroe Ave., Suite F",
    "city": "Corvallis",
    "state": "OR",
    "zip": "97330",
    "phone": "541-757-9690",
    "category": "Restaurant",
    "subcategory": "Chinese",
    "website": "https://www.tianfudiyhotpot.com"
  },
  {
    "ownerId": 1,
    "name": "Block 15 Brewery & Tap Room",
    "address": "3415 SW Deschutes St.",
    "city": "Corvallis",
    "state": "OR",
    "zip": "97333",
    "phone": "541-752-2337",
    "category": "Restaurant",
    "subcategory": "Brewpub",
    "website": "http://block15.com"
  }
]
